[Satellite]
VERSION=1.1
NAME=COMSATBW-1
NICKNAME=COMSATBW-1
TLE1=1 35943U 09054B   17186.11091000  .00000019  00000-0  00000-0 0  9997
TLE2=2 35943   0.0674  68.7517 0002353  26.5126 290.9474  1.00272669 28482
